{"type": "FeatureCollection", "features": [ {"type": "Feature", "properties": {"norad_id": 34340, "name": "COSMOS 2251 DEB", "group": "cosmos-2251-debris", "lat": -36.52692256208499, "lon": -88.76579479699565, "alt_km": 881.154767193354, "timestamp": "2025-12-27T10:28:59.188243+00:00", "meta": {"OBJECT_NAME": "COSMOS 2251 DEB", "OBJECT_ID": "1993-036PN", "EPOCH": "2025-12-27T04:15:40.998240", "MEAN_MOTION": 13.79636695, "ECCENTRICITY": 0.0284523, "INCLINATION": 74.079, "RA_OF_ASC_NODE": 283.8723, "ARG_OF_PERICENTER": 28.3291, "MEAN_ANOMALY": 89.4114, "EPHEMERIS_TYPE": 0, "CLASSIFICATION_TYPE": "U", "NORAD_CAT_ID": 34340, "ELEMENT_SET_NO": 999, "REV_AT_EPOCH": 84467, "BSTAR": 0.0020939, "MEAN_MOTION_DOT": 2.907e-05, "MEAN_MOTION_DDOT": 0}, "tle": {"line1": "1 34340U 93036PN  25361.17755785  .00002907  00000+0  20939-2 0  9999", "line2": "2 34340  74.0790 283.8723 0284523  28.3291  89.4114 13.79636695844676"}}, "geometry": {"type": "Point", "coordinates": [-88.76579479699565, -36.52692256208499]}}, {"type": "Feature", "properties": {"norad_id": 34343, "name": "COSMOS 2251 DEB", "group": "cosmos-2251-debris", "lat": 62.28912858832993, "lon": -152.01210806382275, "alt_km": 669.2193403157617, "timestamp": "2025-12-27T10:28:59.188253+00:00", "meta": {"OBJECT_NAME": "COSMOS 2251 DEB", "OBJECT_ID": "1993-036PR", "EPOCH": "2025-12-27T03:33:47.661120", "MEAN_MOTION": 14.69659459, "ECCENTRICITY": 0.0024626, "INCLINATION": 74.02, "RA_OF_ASC_NODE": 61.61, "ARG_OF_PERICENTER": 332.3086, "MEAN_ANOMALY": 55.5612, "EPHEMERIS_TYPE": 0, "CLASSIFICATION_TYPE": "U", "NORAD_CAT_ID": 34343, "ELEMENT_SET_NO": 999, "REV_AT_EPOCH": 88942, "BSTAR": 0.0015764, "MEAN_MOTION_DOT": 9.406e-05, "MEAN_MOTION_DDOT": 0}, "tle": {"line1": "1 34343U 93036PR  25361.14846830  .00009406  00000+0  15764-2 0  9992", "line2": "2 34343  74.0200  61.6100 0024626 332.3086  55.5612 14.69659459889424"}}, "geometry": {"type": "Point", "coordinates": [-152.01210806382275, 62.28912858832993]}}, {"type": "Feature", "properties": {"norad_id": 34344, "name": "COSMOS 2251 DEB", "group": "cosmos-2251-debris", "lat": -65.6815476679915, "lon": 44.623028945139815, "alt_km": 739.2086813079159, "timestamp": "2025-12-27T10:28:59.188263+00:00", "meta": {"OBJECT_NAME": "COSMOS 2251 DEB", "OBJECT_ID": "1993-036PS", "EPOCH": "2025-12-26T12:51:31.646880", "MEAN_MOTION": 14.16520724, "ECCENTRICITY": 0.0157506, "INCLINATION": 73.9773, "RA_OF_ASC_NODE": 85.7163, "ARG_OF_PERICENTER": 267.2362, "MEAN_ANOMALY": 107.7342, "EPHEMERIS_TYPE": 0, "CLASSIFICATION_TYPE": "U", "NORAD_CAT_ID": 34344, "ELEMENT_SET_NO": 999, "REV_AT_EPOCH": 86292, "BSTAR": 0.0019849, "MEAN_MOTION_DOT": 4.438e-05, "MEAN_MOTION_DDOT": 0}, "tle": {"line1": "1 34344U 93036PS  25360.53578295  .00004438  00000+0  19849-2 0  9990", "line2": "2 34344  73.9773  85.7163 0157506 267.2362 107.7342 14.16520724862921"}}, "geometry": {"type": "Point", "coordinates": [44.623028945139815, -65.6815476679915]}}, {"type": "Feature", "properties": {"norad_id": 34346, "name": "COSMOS 2251 DEB", "group": "cosmos-2251-debris", "lat": -53.269141212178965, "lon": 129.36527524014875, "alt_km": 1004.4524588162794, "timestamp": "2025-12-27T10:28:59.188273+00:00", "meta": {"OBJECT_NAME": "COSMOS 2251 DEB", "OBJECT_ID": "1993-036PU", "EPOCH": "2025-12-26T21:40:22.764000", "MEAN_MOTION": 13.99741085, "ECCENTRICITY": 0.0206268, "INCLINATION": 73.9945, "RA_OF_ASC_NODE": 287.6694, "ARG_OF_PERICENTER": 103.1858, "MEAN_ANOMALY": 322.9427, "EPHEMERIS_TYPE": 0, "CLASSIFICATION_TYPE": "U", "NORAD_CAT_ID": 34346, "ELEMENT_SET_NO": 999, "REV_AT_EPOCH": 85608, "BSTAR": 0.0011669, "MEAN_MOTION_DOT": 2.031e-05, "MEAN_MOTION_DDOT": 0}, "tle": {"line1": "1 34346U 93036PU  25360.90304125  .00002031  00000+0  11669-2 0  9991", "line2": "2 34346  73.9945 287.6694 0206268 103.1858 322.9427 13.99741085856084"}}, "geometry": {"type": "Point", "coordinates": [129.36527524014875, -53.269141212178965]}}, {"type": "Feature", "properties": {"norad_id": 34383, "name": "COSMOS 2251 DEB", "group": "cosmos-2251-debris", "lat": 52.87910579009938, "lon": 65.10528083996633, "alt_km": 529.415049918106, "timestamp": "2025-12-27T10:28:59.188283+00:00", "meta": {"OBJECT_NAME": "COSMOS 2251 DEB", "OBJECT_ID": "1993-036PY", "EPOCH": "2025-12-27T04:14:39.687072", "MEAN_MOTION": 15.10426722, "ECCENTRICITY": 0.0002442, "INCLINATION": 74.0194, "RA_OF_ASC_NODE": 267.8917, "ARG_OF_PERICENTER": 37.5423, "MEAN_ANOMALY": 113.4403, "EPHEMERIS_TYPE": 0, "CLASSIFICATION_TYPE": "U", "NORAD_CAT_ID": 34383, "ELEMENT_SET_NO": 999, "REV_AT_EPOCH": 89331, "BSTAR": 0.0040554, "MEAN_MOTION_DOT": 0.00067289, "MEAN_MOTION_DDOT": 0}, "tle": {"line1": "1 34383U 93036PY  25361.17684823  .00067289  00000+0  40554-2 0  9999", "line2": "2 34383  74.0194 267.8917 0002442  37.5423 113.4403 15.10426722893314"}}, "geometry": {"type": "Point", "coordinates": [65.10528083996633, 52.87910579009938]}}, {"type": "Feature", "properties": {"norad_id": 34387, "name": "COSMOS 2251 DEB", "group": "cosmos-2251-debris", "lat": -0.5056447290150303, "lon": 4.722640741910885, "alt_km": 752.4419175360854, "timestamp": "2025-12-27T10:28:59.188293+00:00", "meta": {"OBJECT_NAME": "COSMOS 2251 DEB", "OBJECT_ID": "1993-036QC", "EPOCH": "2025-12-26T12:10:12.207072", "MEAN_MOTION": 14.43849863, "ECCENTRICITY": 0.0038902, "INCLINATION": 74.0384, "RA_OF_ASC_NODE": 186.3056, "ARG_OF_PERICENTER": 280.7918, "MEAN_ANOMALY": 109.5099, "EPHEMERIS_TYPE": 0, "CLASSIFICATION_TYPE": "U", "NORAD_CAT_ID": 34387, "ELEMENT_SET_NO": 999, "REV_AT_EPOCH": 88380, "BSTAR": 0.00032075, "MEAN_MOTION_DOT": 1.076e-05, "MEAN_MOTION_DDOT": 0}, "tle": {"line1": "1 34387U 93036QC  25360.50708573  .00001076  00000+0  32075-3 0  9990", "line2": "2 34387  74.0384 186.3056 0038902 280.7918 109.5099 14.43849863883809"}}, "geometry": {"type": "Point", "coordinates": [4.722640741910885, -0.5056447290150303]}}, {"type": "Feature", "properties": {"norad_id": 34388, "name": "COSMOS 2251 DEB", "group": "cosmos-2251-debris", "lat": 72.4412520655382, "lon": -49.22146818939853, "alt_km": 728.116713377869, "timestamp": "2025-12-27T10:28:59.188365+00:00", "meta": {"OBJECT_NAME": "COSMOS 2251 DEB", "OBJECT_ID": "1993-036QD", "EPOCH": "2025-12-26T21:03:55.077120", "MEAN_MOTION": 14.49432634, "ECCENTRICITY": 0.0013584, "INCLINATION": 74.0378, "RA_OF_ASC_NODE": 196.5876, "ARG_OF_PERICENTER": 243.9719, "MEAN_ANOMALY": 177.4472, "EPHEMERIS_TYPE": 0, "CLASSIFICATION_TYPE": "U", "NORAD_CAT_ID": 34388, "ELEMENT_SET_NO": 999, "REV_AT_EPOCH": 88360, "BSTAR": 0.00077434, "MEAN_MOTION_DOT": 2.94e-05, "MEAN_MOTION_DDOT": 0}, "tle": {"line1": "1 34388U 93036QD  25360.87772080  .00002940  00000+0  77434-3 0  9994", "line2": "2 34388  74.0378 196.5876 0013584 243.9719 177.4472 14.49432634883602"}}, "geometry": {"type": "Point", "coordinates": [-49.22146818939853, 72.4412520655382]}}, {"type": "Feature", "properties": {"norad_id": 34389, "name": "COSMOS 2251 DEB", "group": "cosmos-2251-debris", "lat": 60.87227109711012, "lon": -106.48411500398056, "alt_km": 748.3481131751751, "timestamp": "2025-12-27T10:28:59.188378+00:00", "meta": {"OBJECT_NAME": "COSMOS 2251 DEB", "OBJECT_ID": "1993-036QE", "EPOCH": "2025-12-26T17:50:07.367712", "MEAN_MOTION": 14.41563956, "ECCENTRICITY": 0.00295087, "INCLINATION": 74.017, "RA_OF_ASC_NODE": 223.8477, "ARG_OF_PERICENTER": 333.1475, "MEAN_ANOMALY": 93.5228, "EPHEMERIS_TYPE": 0, "CLASSIFICATION_TYPE": "U", "NORAD_CAT_ID": 34389, "ELEMENT_SET_NO": 999, "REV_AT_EPOCH": 88214, "BSTAR": 0.00032149365, "MEAN_MOTION_DOT": 1.024e-05, "MEAN_MOTION_DDOT": 0}, "tle": {"line1": "1 34389U 93036QE  25360.74314083  .00001024  00000+0  32149-3 0  9992", "line2": "2 34389  74.0170 223.8477 0029508 333.1475  93.5228 14.41563956882147"}}, "geometry": {"type": "Point", "coordinates": [-106.48411500398056, 60.87227109711012]}}, {"type": "Feature", "properties": {"norad_id": 34396, "name": "COSMOS 2251 DEB", "group": "cosmos-2251-debris", "lat": -59.19217399905121, "lon": 66.61539919461408, "alt_km": 655.5167700121801, "timestamp": "2025-12-27T10:28:59.188389+00:00", "meta": {"OBJECT_NAME": "COSMOS 2251 DEB", "OBJECT_ID": "1993-036QM", "EPOCH": "2025-12-26T09:01:39.169920", "MEAN_MOTION": 14.7477734, "ECCENTRICITY": 0.0004348, "INCLINATION": 74.029, "RA_OF_ASC_NODE": 97.3907, "ARG_OF_PERICENTER": 131.0737, "MEAN_ANOMALY": 296.7563, "EPHEMERIS_TYPE": 0, "CLASSIFICATION_TYPE": "U", "NORAD_CAT_ID": 34396, "ELEMENT_SET_NO": 999, "REV_AT_EPOCH": 88547, "BSTAR": 0.0023543, "MEAN_MOTION_DOT": 0.00015765, "MEAN_MOTION_DDOT": 0}, "tle": {"line1": "1 34396U 93036QM  25360.37614780  .00015765  00000+0  23543-2 0  9990", "line2": "2 34396  74.0290  97.3907 0004348 131.0737 296.7563 14.74777340885479"}}, "geometry": {"type": "Point", "coordinates": [66.61539919461408, -59.19217399905121]}}, {"type": "Feature", "properties": {"norad_id": 34400, "name": "COSMOS 2251 DEB", "group": "cosmos-2251-debris", "lat": -50.276871074627245, "lon": -29.61840278341332, "alt_km": 393.3619647138812, "timestamp": "2025-12-27T10:28:59.188399+00:00", "meta": {"OBJECT_NAME": "COSMOS 2251 DEB", "OBJECT_ID": "1993-036QR", "EPOCH": "2025-12-27T01:28:46.668000", "MEAN_MOTION": 15.60531552, "ECCENTRICITY": 0.0003675, "INCLINATION": 73.963, "RA_OF_ASC_NODE": 351.4759, "ARG_OF_PERICENTER": 182.9352, "MEAN_ANOMALY": 177.1846, "EPHEMERIS_TYPE": 0, "CLASSIFICATION_TYPE": "U", "NORAD_CAT_ID": 34400, "ELEMENT_SET_NO": 999, "REV_AT_EPOCH": 90197, "BSTAR": 0.0041172, "MEAN_MOTION_DOT": 0.00355053, "MEAN_MOTION_DDOT": 0}, "tle": {"line1": "1 34400U 93036QR  25361.06165125  .00355053  00000+0  41172-2 0  9992", "line2": "2 34400  73.9630 351.4759 0003675 182.9352 177.1846 15.60531552901979"}}, "geometry": {"type": "Point", "coordinates": [-29.61840278341332, -50.276871074627245]}}]}